[{"OBJECT_NAME":"ELEKTRO-L 2","OBJECT_ID":"2015-074A","EPOCH":"2026-03-14T08:26:24.338112","MEAN_MOTION":1.00273517,"ECCENTRICITY":0.00028216,"INCLINATION":6.4549,"RA_OF_ASC_NODE":71.684,"ARG_OF_PERICENTER":249.5382,"MEAN_ANOMALY":322.8309,"EPHEMERIS_TYPE":0,"CLASSIFICATION_TYPE":"U","NORAD_CAT_ID":41105,"ELEMENT_SET_NO":999,"REV_AT_EPOCH":3755,"BSTAR":0,"MEAN_MOTION_DOT":-1.15e-6,"MEAN_MOTION_DDOT":0},{"OBJECT_NAME":"GSAT0209 (GALILEO 12)","OBJECT_ID":"2015-079A","EPOCH":"2026-03-12T20:08:11.183712","MEAN_MOTION":1.70474571,"ECCENTRICITY":0.00049992,"INCLINATION":55.765,"RA_OF_ASC_NODE":103.9035,"ARG_OF_PERICENTER":323.1147,"MEAN_ANOMALY":36.9219,"EPHEMERIS_TYPE":0,"CLASSIFICATION_TYPE":"U","NORAD_CAT_ID":41174,"ELEMENT_SET_NO":999,"REV_AT_EPOCH":6313,"BSTAR":0,"MEAN_MOTION_DOT":2.9e-7,"MEAN_MOTION_DDOT":0},{"OBJECT_NAME":"GSAT0208 (GALILEO 11)","OBJECT_ID":"2015-079B","EPOCH":"2026-03-12T11:20:37.874976","MEAN_MOTION":1.70474449,"ECCENTRICITY":0.00044629,"INCLINATION":55.7631,"RA_OF_ASC_NODE":103.9106,"ARG_OF_PERICENTER":323.9096,"MEAN_ANOMALY":36.1299,"EPHEMERIS_TYPE":0,"CLASSIFICATION_TYPE":"U","NORAD_CAT_ID":41175,"ELEMENT_SET_NO":999,"REV_AT_EPOCH":6354,"BSTAR":0,"MEAN_MOTION_DOT":2.6e-7,"MEAN_MOTION_DDOT":0},{"OBJECT_NAME":"GPS BIIF-12","OBJECT_ID":"2016-007A","EPOCH":"2026-03-13T03:18:14.935968","MEAN_MOTION":2.0055639,"ECCENTRICITY":0.00956473,"INCLINATION":55.4616,"RA_OF_ASC_NODE":93.266,"ARG_OF_PERICENTER":246.2279,"MEAN_ANOMALY":112.823,"EPHEMERIS_TYPE":0,"CLASSIFICATION_TYPE":"U","NORAD_CAT_ID":41328,"ELEMENT_SET_NO":999,"REV_AT_EPOCH":7391,"BSTAR":0,"MEAN_MOTION_DOT":3.0e-7,"MEAN_MOTION_DDOT":0},{"OBJECT_NAME":"GSAT0211 (GALILEO 14)","OBJECT_ID":"2016-030A","EPOCH":"2026-03-12T00:14:31.481376","MEAN_MOTION":1.70473955,"ECCENTRICITY":0.00034705,"INCLINATION":55.1288,"RA_OF_ASC_NODE":224.3646,"ARG_OF_PERICENTER":23.7611,"MEAN_ANOMALY":336.2141,"EPHEMERIS_TYPE":0,"CLASSIFICATION_TYPE":"U","NORAD_CAT_ID":41549,"ELEMENT_SET_NO":999,"REV_AT_EPOCH":6101,"BSTAR":0,"MEAN_MOTION_DOT":3.7e-7,"MEAN_MOTION_DDOT":0},{"OBJECT_NAME":"GSAT0210 (GALILEO 13)","OBJECT_ID":"2016-030B","EPOCH":"2026-03-11T16:20:19.197600","MEAN_MOTION":1.70474,"ECCENTRICITY":0.00013801,"INCLINATION":55.1262,"RA_OF_ASC_NODE":224.3718,"ARG_OF_PERICENTER":200.1148,"MEAN_ANOMALY":159.8391,"EPHEMERIS_TYPE":0,"CLASSIFICATION_TYPE":"U","NORAD_CAT_ID":41550,"ELEMENT_SET_NO":999,"REV_AT_EPOCH":6100,"BSTAR":0,"MEAN_MOTION_DOT":3.7e-7,"MEAN_MOTION_DDOT":0},{"OBJECT_NAME":"INSAT-3DR","OBJECT_ID":"2016-054A","EPOCH":"2026-03-14T15:58:49.821024","MEAN_MOTION":1.00271985,"ECCENTRICITY":0.00127093,"INCLINATION":0.0725,"RA_OF_ASC_NODE":91.6208,"ARG_OF_PERICENTER":190.6134,"MEAN_ANOMALY":203.7397,"EPHEMERIS_TYPE":0,"CLASSIFICATION_TYPE":"U","NORAD_CAT_ID":41752,"ELEMENT_SET_NO":999,"REV_AT_EPOCH":3487,"BSTAR":0,"MEAN_MOTION_DOT":-7.8e-7,"MEAN_MOTION_DDOT":0},{"OBJECT_NAME":"GSAT0207 (GALILEO 15)","OBJECT_ID":"2016-069A","EPOCH":"2026-03-13T17:15:10.731744","MEAN_MOTION":1.70474457,"ECCENTRICITY":0.00053616,"INCLINATION":55.4358,"RA_OF_ASC_NODE":103.7267,"ARG_OF_PERICENTER":309.9075,"MEAN_ANOMALY":50.1195,"EPHEMERIS_TYPE":0,"CLASSIFICATION_TYPE":"U","NORAD_CAT_ID":41859,"ELEMENT_SET_NO":999,"REV_AT_EPOCH":5777,"BSTAR":0,"MEAN_MOTION_DOT":3.4e-7,"MEAN_MOTION_DDOT":0},{"OBJECT_NAME":"GSAT0212 (GALILEO 16)","OBJECT_ID":"2016-069B","EPOCH":"2026-03-12T23:39:35.456256","MEAN_MOTION":1.70474723,"ECCENTRICITY":0.00038845,"INCLINATION":55.4332,"RA_OF_ASC_NODE":103.7422,"ARG_OF_PERICENTER":334.9903,"MEAN_ANOMALY":25.0622,"EPHEMERIS_TYPE":0,"CLASSIFICATION_TYPE":"U","NORAD_CAT_ID":41860,"ELEMENT_SET_NO":999,"REV_AT_EPOCH":5801,"BSTAR":0,"MEAN_MOTION_DOT":2.9e-7,"MEAN_MOTION_DDOT":0},{"OBJECT_NAME":"GSAT0213 (GALILEO 17)","OBJECT_ID":"2016-069C","EPOCH":"2026-03-11T14:14:38.635008","MEAN_MOTION":1.70475014,"ECCENTRICITY":0.0005437,"INCLINATION":55.4354,"RA_OF_ASC_NODE":103.7885,"ARG_OF_PERICENTER":293.5263,"MEAN_ANOMALY":66.4835,"EPHEMERIS_TYPE":0,"CLASSIFICATION_TYPE":"U","NORAD_CAT_ID":41861,"ELEMENT_SET_NO":999,"REV_AT_EPOCH":5785,"BSTAR":0,"MEAN_MOTION_DOT":2.0e-7,"MEAN_MOTION_DDOT":0},{"OBJECT_NAME":"GSAT0214 (GALILEO 18)","OBJECT_ID":"2016-069D","EPOCH":"2026-03-12T21:54:20.393856","MEAN_MOTION":1.70474834,"ECCENTRICITY":0.0004476,"INCLINATION":55.4337,"RA_OF_ASC_NODE":103.7448,"ARG_OF_PERICENTER":297.9628,"MEAN_ANOMALY":62.0628,"EPHEMERIS_TYPE":0,"CLASSIFICATION_TYPE":"U","NORAD_CAT_ID":41862,"ELEMENT_SET_NO":999,"REV_AT_EPOCH":5800,"BSTAR":0,"MEAN_MOTION_DOT":2.8e-7,"MEAN_MOTION_DDOT":0},{"OBJECT_NAME":"GOES 16","OBJECT_ID":"2016-071A","EPOCH":"2026-03-14T13:08:45.486816","MEAN_MOTION":1.0027355,"ECCENTRICITY":0.00022101,"INCLINATION":0.1235,"RA_OF_ASC_NODE":86.9349,"ARG_OF_PERICENTER":231.5878,"MEAN_ANOMALY":306.1335,"EPHEMERIS_TYPE":0,"CLASSIFICATION_TYPE":"U","NORAD_CAT_ID":41866,"ELEMENT_SET_NO":999,"REV_AT_EPOCH":3415,"BSTAR":0,"MEAN_MOTION_DOT":-9.2e-7,"MEAN_MOTION_DDOT":0},{"OBJECT_NAME":"GSAT-17","OBJECT_ID":"2017-040B","EPOCH":"2026-03-14T16:01:18.372000","MEAN_MOTION":1.00267935,"ECCENTRICITY":0.00044921,"INCLINATION":0.0234,"RA_OF_ASC_NODE":135.4248,"ARG_OF_PERICENTER":158.8133,"MEAN_ANOMALY":211.8804,"EPHEMERIS_TYPE":0,"CLASSIFICATION_TYPE":"U","NORAD_CAT_ID":42815,"ELEMENT_SET_NO":999,"REV_AT_EPOCH":3184,"BSTAR":0,"MEAN_MOTION_DOT":0,"MEAN_MOTION_DDOT":0},{"OBJECT_NAME":"GSAT0215 (GALILEO 19)","OBJECT_ID":"2017-079A","EPOCH":"2026-03-12T19:35:18.886848","MEAN_MOTION":1.70474604,"ECCENTRICITY":5.032e-5,"INCLINATION":55.1052,"RA_OF_ASC_NODE":224.1555,"ARG_OF_PERICENTER":355.2258,"MEAN_ANOMALY":4.7321,"EPHEMERIS_TYPE":0,"CLASSIFICATION_TYPE":"U","NORAD_CAT_ID":43055,"ELEMENT_SET_NO":999,"REV_AT_EPOCH":5134,"BSTAR":0,"MEAN_MOTION_DOT":3.7e-7,"MEAN_MOTION_DDOT":0},{"OBJECT_NAME":"GSAT0216 (GALILEO 20)","OBJECT_ID":"2017-079B","EPOCH":"2026-03-14T06:44:00.376224","MEAN_MOTION":1.70474699,"ECCENTRICITY":0.00017364,"INCLINATION":55.1052,"RA_OF_ASC_NODE":224.1154,"ARG_OF_PERICENTER":311.7748,"MEAN_ANOMALY":48.1644,"EPHEMERIS_TYPE":0,"CLASSIFICATION_TYPE":"U","NORAD_CAT_ID":43056,"ELEMENT_SET_NO":999,"REV_AT_EPOCH":5138,"BSTAR":0,"MEAN_MOTION_DOT":3.4e-7,"MEAN_MOTION_DDOT":0},{"OBJECT_NAME":"GSAT0217 (GALILEO 21)","OBJECT_ID":"2017-079C","EPOCH":"2026-03-12T17:47:52.788480","MEAN_MOTION":1.70474639,"ECCENTRICITY":0.00019481,"INCLINATION":55.1048,"RA_OF_ASC_NODE":224.1555,"ARG_OF_PERICENTER":350.8522,"MEAN_ANOMALY":9.1027,"EPHEMERIS_TYPE":0,"CLASSIFICATION_TYPE":"U","NORAD_CAT_ID":43057,"ELEMENT_SET_NO":999,"REV_AT_EPOCH":5134,"BSTAR":0,"MEAN_MOTION_DOT":3.7e-7,"MEAN_MOTION_DDOT":0},{"OBJECT_NAME":"GSAT0218 (GALILEO 22)","OBJECT_ID":"2017-079D","EPOCH":"2026-03-13T13:09:25.164288","MEAN_MOTION":1.70474604,"ECCENTRICITY":0.00020247,"INCLINATION":55.1035,"RA_OF_ASC_NODE":224.1311,"ARG_OF_PERICENTER":298.9535,"MEAN_ANOMALY":60.9828,"EPHEMERIS_TYPE":0,"CLASSIFICATION_TYPE":"U","NORAD_CAT_ID":43058,"ELEMENT_SET_NO":999,"REV_AT_EPOCH":5138,"BSTAR":0,"MEAN_MOTION_DOT":3.6e-7,"MEAN_MOTION_DDOT":0}]
