ELEKTRO-L 2             
1 41105U 15074A   26073.35167058 -.00000115  00000+0  00000+0 0  9997
2 41105   6.4549  71.6840 0002821 249.5382 322.8309  1.00273517 37556
GSAT0209 (GALILEO 12)   
1 41174U 15079A   26071.83901833  .00000029  00000+0  00000+0 0  9999
2 41174  55.7650 103.9035 0004999 323.1147  36.9219  1.70474571 63139
GSAT0208 (GALILEO 11)   
1 41175U 15079B   26071.47266059  .00000026  00000+0  00000+0 0  9991
2 41175  55.7631 103.9106 0004462 323.9096  36.1299  1.70474449 63543
GPS BIIF-12             
1 41328U 16007A   26072.13767287  .00000030  00000+0  00000+0 0  9991
2 41328  55.4616  93.2660 0095647 246.2279 112.8230  2.00556390 73913
GSAT0211 (GALILEO 14)   
1 41549U 16030A   26071.01008659  .00000037  00000+0  00000+0 0  9996
2 41549  55.1288 224.3646 0003470  23.7611 336.2141  1.70473955 61014
GSAT0210 (GALILEO 13)   
1 41550U 16030B   26070.68077775  .00000037  00000+0  00000+0 0  9995
2 41550  55.1262 224.3718 0001380 200.1148 159.8391  1.70474000 61009
INSAT-3DR               
1 41752U 16054A   26073.66585441 -.00000078  00000+0  00000+0 0  9996
2 41752   0.0725  91.6208 0012709 190.6134 203.7397  1.00271985 34870
GSAT0207 (GALILEO 15)   
1 41859U 16069A   26072.71887421  .00000034  00000+0  00000+0 0  9999
2 41859  55.4358 103.7267 0005361 309.9075  50.1195  1.70474457 57779
GSAT0212 (GALILEO 16)   
1 41860U 16069B   26071.98582704  .00000029  00000+0  00000+0 0  9999
2 41860  55.4332 103.7422 0003884 334.9903  25.0622  1.70474723 58012
GSAT0213 (GALILEO 17)   
1 41861U 16069C   26070.59350272  .00000020  00000+0  00000+0 0  9990
2 41861  55.4354 103.7885 0005437 293.5263  66.4835  1.70475014 57855
GSAT0214 (GALILEO 18)   
1 41862U 16069D   26071.91273604  .00000028  00000+0  00000+0 0  9999
2 41862  55.4337 103.7448 0004476 297.9628  62.0628  1.70474834 58006
GOES 16                 
1 41866U 16071A   26073.54774869 -.00000092  00000+0  00000+0 0  9998
2 41866   0.1235  86.9349 0002210 231.5878 306.1335  1.00273550 34153
GSAT-17                 
1 42815U 17040B   26073.66757375  .00000000  00000+0  00000+0 0  9994
2 42815   0.0234 135.4248 0004492 158.8133 211.8804  1.00267935 31849
GSAT0215 (GALILEO 19)   
1 43055U 17079A   26071.81619082  .00000037  00000+0  00000+0 0  9990
2 43055  55.1052 224.1555 0000503 355.2258   4.7321  1.70474604 51342
GSAT0216 (GALILEO 20)   
1 43056U 17079B   26073.28055991  .00000034  00000+0  00000+0 0  9994
2 43056  55.1052 224.1154 0001736 311.7748  48.1644  1.70474699 51386
GSAT0217 (GALILEO 21)   
1 43057U 17079C   26071.74158320  .00000037  00000+0  00000+0 0  9997
2 43057  55.1048 224.1555 0001948 350.8522   9.1027  1.70474639 51348
GSAT0218 (GALILEO 22)   
1 43058U 17079D   26072.54820792  .00000036  00000+0  00000+0 0  9995
2 43058  55.1035 224.1311 0002024 298.9535  60.9828  1.70474604 51387
